{"type":"FeatureCollection","features":[{"type":"Feature","id":40,"geometry":{"type":"Polygon","coordinates":[[[10.854389882000021,58.933599544999993],[10.866264806000004,58.933078361000014],[10.917908333000014,58.942272221999986],[10.983193480000011,58.960449540000013],[11.066417440000009,58.977394419999996],[11.092381349999982,58.991805360000001],[11.117148340000028,59.015059339999993],[11.153506180000022,59.079256799999996],[11.224859349999974,59.087612139999976],[11.246126520000018,59.092902900000013],[11.251887346999979,59.094416979000016],[11,59.999999999000011],[9.9999999990000106,59.999999999000011],[7.9999999980000212,58.749999999000011],[5.4889999889999785,58.751999997999974],[5.4616917189999867,58.733001578000028],[5.4624418629999809,58.731853703000013],[5.5082052970000177,58.663485080999976],[5.5082241289999843,58.663456941999982],[5.5095354619999739,58.66179747000001],[5.5201928789999783,58.65013594200002],[5.5211591290000115,58.649162304000015],[5.6321046580000029,58.545502804000023],[5.633033796999996,58.544687332000024],[5.6350276019999797,58.543226387999994],[5.6768235470000263,58.515826109999978],[5.6777566029999775,58.515241747999994],[5.8388055749999808,58.418579942999997],[5.8399216860000251,58.417941831999997],[5.8508747419999736,58.411996554999973],[5.8526956029999724,58.411083497999982],[6.0673802160000037,58.311223804999997],[6.3216506059999915,58.191747221000014],[6.5742163300000129,58.071765249000009],[6.5747718850000183,58.071506109999973],[6.6064217740000117,58.057080609000025],[6.6079557470000054,58.056424277000019],[6.6107621620000145,58.055420192999975],[6.6455532749999975,58.044363470999997],[6.6465659120000282,58.044054860000017],[6.6496150250000028,58.043275720999986],[6.6585785240000064,58.04129322],[6.6588044960000161,58.041243776999977],[6.67932596899999,58.036801027000024],[6.992168941999978,57.968524805000015],[6.9944617759999801,57.96807547100002],[6.9977255530000093,57.967613556000003],[7.1959924689999752,57.945392998999978],[7.1986963310000078,57.945152971000027],[7.2020640260000164,57.945031637999989],[7.2262900270000046,57.944853249999994],[7.5639327200000253,57.941885888000002],[7.5646060270000248,57.941882916999987],[7.5679757770000151,57.941984221999974],[7.6178641920000132,57.944916221000028],[7.6204729440000278,57.945128554999997],[7.6237450549999721,57.945569221000028],[7.6549964700000146,57.950741943000025],[7.6574001660000022,57.951197388000026],[7.6968415260000143,57.959640998999987],[7.6972963869999944,57.95974049900002],[7.7171135550000258,57.964170358999979],[8.0291930550000075,58.033381388999999],[8.0306721100000118,58.033730971000011],[8.2054514430000154,58.07776813800001],[8.2056072770000128,58.077807527000004],[8.2647881670000061,58.092851248999978],[8.2670699710000122,58.093492888000014],[8.2698990270000081,58.09448138800002],[8.2725105829999848,58.095625526999982],[8.4982791940000197,58.205385277000005],[8.4986064170000191,58.205545831999984],[8.6798548599999776,58.295401470999991],[8.6820105830000216,58.296575888000007],[8.8837373599999978,58.417288165999992],[9.1108244440000021,58.551814998999987],[9.3396563059999949,58.685934470999996],[9.5702502490000256,58.819641359999991],[9.6386899720000088,58.837931860000026],[9.9473649430000251,58.919736638000018],[10.163118693000001,58.949242971999979],[10.164021360999982,58.949372831999995],[10.234303749999981,58.960034638000025],[10.531881221999981,58.947330388000012],[10.854389882000021,58.933599544999993]]]},"properties":{"objectid":40,"id":1,"name":"Svenskegrensen til Jæren","areal":28989,"sjoareal":4598,"sjoareal_gl":3864,"status":"grønn"}},{"type":"Feature","id":44,"geometry":{"type":"Polygon","coordinates":[[[5.0408212140000046,62.298578501000009],[5.1009999859999766,62.193999997999981],[5.4399999890000004,62.039999998999974],[5.4399999890000004,61.999999999000011],[8,61.999999999000011],[8.5999999989999765,62.499999999000011],[7.9999999980000212,62.829999998999995],[7.1999999980000098,62.899999998999988],[7.1049999979999825,62.98799999900001],[6.942365370999994,63.128992873000016],[6.8040866360000223,63.082915137999976],[6.4869376359999933,62.975911720999989],[6.1721061619999773,62.868200832000014],[6.1713055499999996,62.867923027000018],[6.1637128830000165,62.865078470000014],[6.1565590509999879,62.862006109999982],[6.153960077000022,62.860811693000016],[5.8782420480000042,62.733269832000019],[5.8765997709999738,62.732492666999974],[5.691065798000011,62.64285160999998],[5.4239252950000036,62.512388277000014],[5.159112988000004,62.381416666000007],[5.1555387650000171,62.379569580999998],[5.1494686820000197,62.376080248999983],[5.1439206549999881,62.372408554999993],[5.0408212140000046,62.298578501000009]]]},"properties":{"objectid":44,"id":5,"name":"Stadt til Hustadvika","areal":14931,"sjoareal":7138,"sjoareal_gl":3950,"status":"gul"}},{"type":"Feature","id":51,"geometry":{"type":"Polygon","coordinates":[[[20.933668538999996,70.56536448899999],[21.199999999999989,70.222999999000024],[21.480000000000018,70.189999999999998],[21.700000000999978,70.100000000000023],[22.100000002000002,70.149999999999977],[22.199999999999989,70],[22.699999999999989,69.699999999999989],[25.000000005999993,69.899999998999988],[27.070000025000013,70.249999998000021],[27.720000029999994,70.809999999000013],[28.056000032999975,71.087999997999987],[28.077072766000015,71.124887759999979],[27.667164972000023,71.150355859999991],[27.662625304000017,71.15056513799999],[27.339407551000022,71.160441777000017],[26.786583571999984,71.176020999000002],[26.232923899000014,71.189967693000028],[25.678519424000001,71.202278220999972],[25.675376980999999,71.202312249999977],[25.669828008000025,71.202220861000001],[25.664342065000028,71.201936999999987],[25.252376004999974,71.172688416000028],[24.711796780999975,71.132796611000003],[24.609592338000027,71.130748917000005],[24.057151254000019,71.118705859999977],[24.052593307999985,71.118532942999991],[23.967946779999977,71.11404866700002],[23.963592668999979,71.113753526999972],[23.958314889999997,71.113217582000004],[23.953246530999991,71.112500360000013],[23.944919586000026,71.111143805999973],[23.941192945000012,71.110472109999989],[23.708867558000009,71.064138832000026],[23.24145633400002,70.969370861000016],[22.778530249000028,70.873437055000011],[22.777584944000012,70.873234109999999],[22.404684335000013,70.790492388000018],[21.956710832999988,70.689170056000023],[21.90913647299999,70.683572609999999],[21.400499471999979,70.622757498999988],[20.933668538999996,70.56536448899999]]]},"properties":{"objectid":51,"id":12,"name":"Vest-Finnmark","areal":27775,"sjoareal":11196,"sjoareal_gl":10683,"status":"grønn"}},{"type":"Feature","id":50,"geometry":{"type":"Polygon","coordinates":[[[17.747772645999987,69.801612879999993],[17.949000001000002,69.643999999000016],[18.001000001000023,69.635999998999978],[18.300000000000011,69.549999999000022],[18.699999999999989,69.599999998999976],[18.73399999999998,69.557999999999993],[18.742000001000008,69.543999998999993],[18.780000001000019,69.399999998999988],[19.199999999999989,69.299999999000022],[19.199999998999999,69],[22.699999999999989,69.699999999999989],[22.199999999999989,70],[22.100000002000002,70.149999999999977],[21.700000000999978,70.100000000000023],[21.480000000000018,70.189999999999998],[21.199999999999989,70.222999999000024],[20.933668538999996,70.56536448899999],[20.392546278999987,70.49692263899999],[19.893307859999993,70.431929860000025],[19.893269861000022,70.431924831999993],[19.554354527999976,70.386670417000005],[19.060700306000001,70.319251332000022],[19.056203305999986,70.318537527999979],[18.619221778999986,70.239017277000016],[18.618546611999989,70.238890777999984],[18.614081555999974,70.237927443999979],[18.609949831999984,70.236806805000015],[18.606199554999989,70.235541915999988],[18.602874472999986,70.234147554999993],[18.342807971000013,70.111234555999999],[18.342607249000025,70.11113825000001],[18.190929889000017,70.037491332000002],[17.891983056000015,69.890412943999991],[17.889547416000028,69.889071806000004],[17.747772645999987,69.801612879999993]]]},"properties":{"objectid":50,"id":11,"name":"Kvaløya til Loppa","areal":17523,"sjoareal":7108,"sjoareal_gl":6825,"status":"gul"}},{"type":"Feature","id":41,"geometry":{"type":"Polygon","coordinates":[[[5.3631835709999791,58.728386053999998],[5.3925281080000218,58.684769807999999],[5.4889999889999785,58.751999997999974],[7.9999999980000212,58.749999999000011],[6.9999999969999749,59.999999999000011],[5.9099999929999854,59.609999997999978],[5.3399999879999882,59.429999999000017],[5.2959999880000055,59.374999999000011],[5.2599999870000147,59.349999997999987],[5.269999987999995,59.179999998000028],[5.192999986000018,59.147999997999989],[4.7581948929999953,59.222882680999987],[4.7629989260000229,59.220568026000024],[4.7630688709999731,59.22053861400002],[4.7664592959999936,59.219112828999982],[4.7687987109999881,59.218128904000025],[4.769787392000012,59.217713635999985],[4.7704846760000237,59.217439995000007],[4.7836182190000045,59.212284317000012],[5.0814197920000197,59.094599830999982],[5.2447100979999846,58.979856609000024],[5.2969523479999907,58.862415498000018],[5.2976817100000062,58.860856470999977],[5.3599310710000054,58.733993720000001],[5.3606065440000066,58.732669165000004],[5.3631835709999791,58.728386053999998]]]},"properties":{"objectid":41,"id":2,"name":"Ryfylket","areal":14653,"sjoareal":2439,"sjoareal_gl":1977,"status":"gul"}},{"type":"Feature","id":42,"geometry":{"type":"Polygon","coordinates":[[[4.6181527730000198,60.300744654000027],[4.626032591000012,60.286083775999998],[4.6790862170000196,60.115681176999999],[4.7337349590000031,59.938265382999987],[4.7809373669999786,59.78345621699998],[4.8066207329999884,59.657717269999978],[4.7139675459999921,59.51384645600001],[4.6051990029999956,59.343279404999976],[4.5814069699999891,59.292187309999974],[4.591305621999993,59.251468756999998],[4.7581948929999953,59.222882680999987],[5.192999986000018,59.147999997999989],[5.269999987999995,59.179999998000028],[5.2599999870000147,59.349999997999987],[5.2959999880000055,59.374999999000011],[5.3399999879999882,59.429999999000017],[5.9099999929999854,59.609999997999978],[6.9999999969999749,59.999999999000011],[7.9999999980000212,60.699999998999999],[6.7999999969999863,60.699999998999999],[5.7999999919999823,60.409999998999979],[5.3299999889999867,60.409999997999989],[5.3299999889999867,60.44999999800001],[5.2719999870000152,60.459999998000001],[5.2349999869999806,60.458999998000024],[5.1399999860000207,60.48999999900002],[5.0729999860000135,60.464999997999996],[5.0369999839999764,60.458999998000024],[4.9869999850000113,60.456999998000015],[4.9999999849999881,60.429999998000028],[4.9839999839999791,60.416999997999994],[4.9659999830000174,60.440999997999995],[4.9549999839999828,60.456999998000015],[4.9405284649999999,60.462494773000003],[4.9339999840000246,60.457999997999991],[4.9229999840000005,60.453999997999972],[4.903999983999995,60.445999997999991],[4.5319230819999916,60.460301663999985],[4.5376939139999877,60.449679071999981],[4.6181527730000198,60.300744654000027]]]},"properties":{"objectid":42,"id":3,"name":"Karmøy til Sotra","areal":15788,"sjoareal":5681,"sjoareal_gl":3558,"status":"rød"}},{"type":"Feature","id":45,"geometry":{"type":"Polygon","coordinates":[[[6.8736049149999872,63.188480153],[7.1049999979999825,62.98799999900001],[7.1999999980000098,62.899999998999988],[7.9999999980000212,62.829999998999995],[8.5999999989999765,62.499999999000011],[12.300000000000011,63.899999998999988],[10.613000000999989,64.390999998999973],[10.509999999999991,64.428999998999984],[9.8453215889999797,64.524003880000009],[9.8450749020000217,64.524037479000015],[9.7859406659999877,64.495580916999984],[9.5098617500000273,64.36161199899999],[9.2364613049999775,64.227126166000005],[8.6290863439999725,64.000943184999983],[8.2288521479999872,64.00041601700002],[8.2211984049999955,63.996796883999991],[7.9679606459999945,63.847401319000028],[7.7267422200000055,63.703189805000022],[7.5755226030000244,63.611821269000018],[7.4824028140000109,63.543736654999975],[7.2532348789999901,63.403511354999978],[7.0188414670000157,63.258271967999974],[6.9453354390000186,63.212341052999989],[6.8736049149999872,63.188480153]]]},"properties":{"objectid":45,"id":6,"name":"Nordmøre og Sør-Trøndelag","areal":29516,"sjoareal":12308,"sjoareal_gl":10331,"status":"gul"}},{"type":"Feature","id":46,"geometry":{"type":"Polygon","coordinates":[[[9.8453215889999797,64.524003880000009],[10.509999999999991,64.428999998999984],[10.613000000999989,64.390999998999973],[12.300000000000011,63.899999998999988],[13.199999999999989,64.599999998999976],[13.300000001000001,65.349999998999976],[12.600000000000023,65.349999998999976],[12.329999999999984,65.409999998999979],[12.199999999999989,65.329999999999984],[12.099999998999976,65.220000000000027],[12.037999999000021,65.216666665999981],[11.97199999999998,65.229499998999984],[11.963000001000012,65.230999999000005],[11.072273779999989,65.492228892000014],[10.984430388000021,65.40091677700002],[10.825209804999986,65.249700139000026],[10.654388332999986,65.085327138000025],[10.485662362000028,64.920758137999997],[10.484467056000028,64.919431222000014],[10.419801306000011,64.837001278000002],[10.419032640000012,64.835890442999982],[10.418205833000002,64.834132332000024],[10.402683527000022,64.788351193999972],[10.346262277999983,64.761935359999995],[10.064730082999972,64.629024804999972],[9.8450749020000217,64.524037479000015],[9.8453215889999797,64.524003880000009]]]},"properties":{"objectid":46,"id":7,"name":"Nord-Trøndelag med Bindal","areal":17057,"sjoareal":5412,"sjoareal_gl":5182,"status":"gul"}},{"type":"Feature","id":47,"geometry":{"type":"Polygon","coordinates":[[[11.079999999999984,65.48999999900002],[11.963000001000012,65.230999999000005],[11.97199999999998,65.229499998999984],[12.037999999000021,65.216666665999981],[12.099999998999976,65.220000000000027],[12.199999999999989,65.329999999999984],[12.329999999999984,65.409999998999979],[12.600000000000023,65.349999998999976],[13.300000001000001,65.349999998999976],[14.199999999999989,66.100000000000023],[15.600000001000012,67.049999999000022],[15.699999999999989,67.299999999000022],[15.100000001000012,67.399999998999988],[14.800000000000011,67.349999998999976],[14.310000000000002,67.26400000000001],[13.399999999999977,67.430000000000007],[12.192744711999978,66.987329864999992],[12.233398221000016,66.943912942999987],[12.389703193999992,66.775443193000001],[12.300408639000011,66.736289442999976],[11.99865797199999,66.602673220999975],[11.998411083000008,66.602562055000021],[11.995629139000016,66.601151277999975],[11.993246167999985,66.599629499000002],[11.991289944000016,66.598014416000012],[11.850767001000008,66.463128056000016],[11.680278666999982,66.297324638000021],[11.512021609999977,66.131333220999977],[11.511469638999984,66.130754027000023],[11.510179943000026,66.129039137999996],[11.429041193999979,65.994985083000017],[11.324883528999976,65.820746526999983],[11.222125666000011,65.646434139000007],[11.14509024900002,65.567409972000007],[11.072273779999989,65.492228892000014],[11.079999999999984,65.48999999900002]]]},"properties":{"objectid":47,"id":8,"name":"Helgeland til Bodø","areal":27369,"sjoareal":13106,"sjoareal_gl":12766,"status":"gul"}},{"type":"Feature","id":43,"geometry":{"type":"Polygon","coordinates":[[[4.6633739800000171,60.473140192000017],[4.6731541899999911,60.454998280999973],[4.903999983999995,60.445999997999991],[4.9229999840000005,60.453999997999972],[4.9339999840000246,60.457999997999991],[4.9405284649999999,60.462494773000003],[4.9549999839999828,60.456999998000015],[4.9659999830000174,60.440999997999995],[4.9839999839999791,60.416999997999994],[4.9999999849999881,60.429999998000028],[4.9869999850000113,60.456999998000015],[5.0369999839999764,60.458999998000024],[5.0729999860000135,60.464999997999996],[5.1399999860000207,60.48999999900002],[5.2349999869999806,60.458999998000024],[5.2719999870000152,60.459999998000001],[5.3299999889999867,60.44999999800001],[5.3299999889999867,60.409999997999989],[5.7999999919999823,60.409999998999979],[6.7999999969999863,60.699999998999999],[7.9999999980000212,60.699999998999999],[8,61.999999999000011],[5.4399999890000004,61.999999999000011],[5.4399999890000004,62.039999998999974],[5.1009999859999766,62.193999997999981],[5.0408212140000046,62.298578501000009],[4.9687504060000265,62.247081295999976],[4.9355445400000235,62.223185553999997],[4.9351065139999832,62.222867998000027],[4.9302038440000047,62.219010109999999],[4.9258709559999829,62.215006527000014],[4.7700690660000191,62.057173165999984],[4.768003842999974,62.054964109000025],[4.6862377040000069,61.962692636999975],[4.6861417869999968,61.962583774999985],[4.5809388119999994,61.842362165999987],[4.4371193389999917,61.676340831000005],[4.4339934779999908,61.672350775999973],[4.431289420999974,61.668052941999974],[4.4292020049999792,61.66367819200002],[4.4277405589999717,61.659246470000028],[4.4269114219999892,61.65477794200001],[4.4223314490000121,61.614616163999983],[4.4020380590000059,61.435405635999984],[4.3819748369999729,61.256187387000011],[4.3621374470000092,61.076961497000013],[4.361950003000004,61.072744304000025],[4.3627715580000199,61.033678414000008],[4.3629676140000129,61.030736831000013],[4.3636116979999997,61.025004164999984],[4.3636736430000269,61.024489357999983],[4.364559335000024,61.020023691999995],[4.3660633349999785,61.015597190999983],[4.3681785040000136,61.011229942],[4.3782344190000231,60.993205692000004],[4.4743098669999881,60.819922775999999],[4.5693504220000136,60.64656719200002],[4.6633739800000171,60.473140192000017]]]},"properties":{"objectid":43,"id":4,"name":"Nordhordland til Stadt","areal":31103,"sjoareal":7138,"sjoareal_gl":5584,"status":"gul"}},{"type":"Feature","id":49,"geometry":{"type":"Polygon","coordinates":[[[16.096194819999994,69.367034984999975],[16.122000001000004,69.319999999999993],[15.650000001000024,69],[15.634000001000004,68.966999998999995],[15.653000001000009,68.960999999000023],[15.750000000999989,68.699999998999999],[15.699999999999989,68.499999999000011],[16.000000000999989,68.499999999000011],[15.999999999000011,68.600000000000023],[16.577999999999975,68.627999999999986],[18,68.599999998999976],[19.199999998999999,69],[19.199999999999989,69.299999999000022],[18.780000001000019,69.399999998999988],[18.742000001000008,69.543999998999993],[18.73399999999998,69.557999999999993],[18.699999999999989,69.599999998999976],[18.300000000000011,69.549999999000022],[18.046999998999979,69.62299999999999],[18.001000001000023,69.635999998999978],[17.949000001000002,69.643999999000016],[17.747772645999987,69.801612879999993],[17.696634195000001,69.769857693000006],[17.446629137999992,69.613015055000005],[17.364864779000015,69.596418389000007],[16.922825529000022,69.505577027000015],[16.476625528999989,69.431504166000025],[16.096194819999994,69.367034984999975]]]},"properties":{"objectid":49,"id":10,"name":"Andøya til Senja","areal":12727,"sjoareal":4795,"sjoareal_gl":4640,"status":"gul"}},{"type":"Feature","id":52,"geometry":{"type":"Polygon","coordinates":[[[28.077072766000015,71.124887759999979],[28.056000032999975,71.087999997999987],[27.720000029999994,70.809999999000013],[27.070000025000013,70.249999998000021],[28.000000041000021,70.249999998000021],[29.700000120000027,69.499999994999996],[30.000000134999993,69.669999995000012],[30.200000147000026,69.679999995000003],[30.500000176000015,69.599999992999983],[30.820000196000024,69.786999992999995],[30.821901416999992,69.788324584999998],[30.821727839999994,69.788906680000025],[30.821589159999974,69.789332539999975],[30.821577660000003,69.791250730000002],[30.817652778000024,69.794838889000005],[30.889075805999994,69.841144389000021],[30.933719166999992,69.931543889000011],[31.022124091000023,70.108248632000027],[31.112047894999989,70.284905411000011],[31.215070706000006,70.381210271999976],[31.216249066999978,70.382458187999987],[31.217380676999994,70.384209161000001],[31.217944095999997,70.385990909999975],[31.217932648999977,70.387782688000016],[31.217806677999988,70.388535493000006],[31.217259898999998,70.390234770999996],[31.216131233999988,70.391985993999981],[31.214446898999995,70.393686133000017],[31.212226370999986,70.395315383000025],[31.207453315999999,70.398369299000024],[31.206520037000018,70.398938937000025],[31.203610732000016,70.400441103999981],[31.187275895000028,70.407950271999994],[31.184334730999979,70.409175215999994],[31.180580561999989,70.410449438000001],[31.05024410499999,70.450025521999976],[30.650772456000027,70.569794550999973],[30.246559757999989,70.688677358000007],[30.244476677000023,70.689251774000013],[30.126336279999975,70.719991134999987],[30.12359225199998,70.72065474599998],[30.118952084,70.721581940000021],[29.75336686899999,70.785422413999981],[29.269557153999983,70.868178469999975],[29.120191481000006,70.904087358000027],[28.675968743999988,71.009414304000018],[28.227002926000011,71.113668303999987],[28.224123317000021,71.114283832000012],[28.219257371000026,71.115135803999976],[28.214135897999995,71.115812803999972],[28.208818678,71.116306941999994],[28.190910229999986,71.11763580500002],[28.189402286000018,71.117739916000005],[28.077072766000015,71.124887759999979]]]},"properties":{"objectid":52,"id":13,"name":"Øst-Finnmark","areal":14766,"sjoareal":4172,"sjoareal_gl":3789,"status":"grønn"}},{"type":"Feature","id":48,"geometry":{"type":"Polygon","coordinates":[[[12.074921556999982,67.112223083000003],[12.192744711999978,66.987329864999992],[13.399999999999977,67.430000000000007],[14.310000000000002,67.26400000000001],[14.800000000000011,67.349999998999976],[15.100000001000012,67.399999998999988],[15.699999999999989,67.299999999000022],[15.949999999999989,67.499999999000011],[16.549999999000022,67.799999999000022],[17.049999999000022,68.199999998999999],[17.800000000000011,68.099999998999976],[18,68.599999998999976],[16.577999999999975,68.627999999999986],[15.999999999000011,68.600000000000023],[16.000000000999989,68.499999999000011],[15.699999999999989,68.499999999000011],[15.750000000999989,68.699999998999999],[15.653000001000009,68.960999999000023],[15.634000001000004,68.966999998999995],[15.650000001000024,69],[16.122000001000004,69.319999999999993],[16.096194819999994,69.367034984999975],[16.078420170000015,69.363992919999987],[16.018145193999999,69.353657109999972],[16.014789945000018,69.353020304999973],[16.010564998999996,69.352026304999981],[15.934432000000015,69.331901331999973],[15.530346832000021,69.223890028000028],[15.130271139000001,69.114940916000023],[15.126910361,69.113923082999975],[15.123430305999989,69.11263102700002],[14.923055805999979,69.029269415999977],[14.599452362000022,68.892790359999992],[14.279823193000027,68.755702192999991],[14.277482610999982,68.754598998999995],[14.274858472000005,68.75308050000001],[14.272701192999989,68.751468249000027],[14.171541557000012,68.663778444000002],[14.141325278000011,68.645607556000016],[13.888251970999988,68.492038026999978],[13.638598693999995,68.338089249999996],[13.515884389000007,68.305253166999989],[13.125385026999993,68.199523248999981],[13.124099694999984,68.199158581999995],[13.120487888000014,68.197971388999974],[13.117241750000005,68.19664633299999],[13.025915499999996,68.154960693000021],[13.023372139999992,68.153675249000003],[13.020927417999985,68.152131554999983],[12.959280693999972,68.107812637999984],[12.739809750000006,67.948445165999999],[12.738649221999992,67.947527777999994],[12.736972917000003,67.945849860999999],[12.685461640000028,67.884219776999998],[12.543909111000005,67.713079443000026],[12.363532195000005,67.661000581999986],[11.990364081999985,67.551882416000012],[11.988250081999979,67.551217276999978],[11.946958972000004,67.537354443000027],[11.946255749999978,67.537112859999979],[11.83191886100002,67.49685888800002],[11.831520610999974,67.496716499000001],[11.828298750999977,67.495416916000011],[11.825461612000026,67.493991777000019],[11.823042193999981,67.492457748999982],[11.821068668000009,67.490832721999993],[11.819563945000027,67.489135610000005],[11.780217499999992,67.435264388000007],[11.779533807000007,67.434189220999997],[11.779387054999972,67.433919748999983],[11.778991556999983,67.433088554999983],[11.77851958399998,67.431305332000022],[11.77855066799998,67.429512971000008],[11.779084361999992,67.427732360999983],[11.780114304999984,67.425984165999978],[11.801510751000023,67.396986889000004],[11.802613028999986,67.395695138000008],[11.914226944999996,67.280370167000001],[12.074921556999982,67.112223083000003]]]},"properties":{"objectid":48,"id":9,"name":"Vestfjorden og Vesterålen","areal":28191,"sjoareal":16740,"sjoareal_gl":16115,"status":"gul"}}]}